[{"OBJECT_NAME":"STARLINK-11468 [DTC]","OBJECT_ID":"2024-231D","EPOCH":"2025-08-30T12:42:58.939776","MEAN_MOTION":15.69702733,"ECCENTRICITY":0.0002194,"INCLINATION":53.157,"RA_OF_ASC_NODE":323.9126,"ARG_OF_PERICENTER":38.3724,"MEAN_ANOMALY":321.745,"EPHEMERIS_TYPE":0,"CLASSIFICATION_TYPE":"U","NORAD_CAT_ID":62221,"ELEMENT_SET_NO":999,"REV_AT_EPOCH":4338,"BSTAR":0.002607836,"MEAN_MOTION_DOT":0.00328061,"MEAN_MOTION_DDOT":0},{"OBJECT_NAME":"STARLINK-11488 [DTC]","OBJECT_ID":"2024-231E","EPOCH":"2025-08-30T12:21:47.309760","MEAN_MOTION":15.69739378,"ECCENTRICITY":0.00017221,"INCLINATION":53.1567,"RA_OF_ASC_NODE":323.8152,"ARG_OF_PERICENTER":37.5659,"MEAN_ANOMALY":322.5479,"EPHEMERIS_TYPE":0,"CLASSIFICATION_TYPE":"U","NORAD_CAT_ID":62222,"ELEMENT_SET_NO":999,"REV_AT_EPOCH":4338,"BSTAR":0.0017603073,"MEAN_MOTION_DOT":0.00218651,"MEAN_MOTION_DDOT":0},{"OBJECT_NAME":"STARLINK-11483 [DTC]","OBJECT_ID":"2024-231F","EPOCH":"2025-08-30T22:14:07.231776","MEAN_MOTION":15.6975032,"ECCENTRICITY":7.364e-5,"INCLINATION":53.1571,"RA_OF_ASC_NODE":321.3901,"ARG_OF_PERICENTER":104.9931,"MEAN_ANOMALY":255.1169,"EPHEMERIS_TYPE":0,"CLASSIFICATION_TYPE":"U","NORAD_CAT_ID":62223,"ELEMENT_SET_NO":999,"REV_AT_EPOCH":4345,"BSTAR":0.0013737695,"MEAN_MOTION_DOT":0.00169569,"MEAN_MOTION_DDOT":0},{"OBJECT_NAME":"STARLINK-11492 [DTC]","OBJECT_ID":"2024-231G","EPOCH":"2025-08-30T12:35:54.928320","MEAN_MOTION":15.69781794,"ECCENTRICITY":0.00010911,"INCLINATION":53.1569,"RA_OF_ASC_NODE":323.8897,"ARG_OF_PERICENTER":76.4699,"MEAN_ANOMALY":283.644,"EPHEMERIS_TYPE":0,"CLASSIFICATION_TYPE":"U","NORAD_CAT_ID":62224,"ELEMENT_SET_NO":999,"REV_AT_EPOCH":4338,"BSTAR":0.0015925044,"MEAN_MOTION_DOT":0.00197592,"MEAN_MOTION_DDOT":0},{"OBJECT_NAME":"STARLINK-11471 [DTC]","OBJECT_ID":"2024-231H","EPOCH":"2025-08-30T22:21:11.207808","MEAN_MOTION":15.69744568,"ECCENTRICITY":0.00011315,"INCLINATION":53.1568,"RA_OF_ASC_NODE":321.4335,"ARG_OF_PERICENTER":79.9092,"MEAN_ANOMALY":280.2054,"EPHEMERIS_TYPE":0,"CLASSIFICATION_TYPE":"U","NORAD_CAT_ID":62225,"ELEMENT_SET_NO":999,"REV_AT_EPOCH":4345,"BSTAR":0.0015369388,"MEAN_MOTION_DOT":0.00190211,"MEAN_MOTION_DDOT":0},{"OBJECT_NAME":"STARLINK-11475 [DTC]","OBJECT_ID":"2024-231J","EPOCH":"2025-08-30T22:28:15.241728","MEAN_MOTION":15.69800671,"ECCENTRICITY":0.00010075,"INCLINATION":53.1573,"RA_OF_ASC_NODE":321.4517,"ARG_OF_PERICENTER":50.1658,"MEAN_ANOMALY":309.9448,"EPHEMERIS_TYPE":0,"CLASSIFICATION_TYPE":"U","NORAD_CAT_ID":62226,"ELEMENT_SET_NO":999,"REV_AT_EPOCH":4345,"BSTAR":0.0018173045,"MEAN_MOTION_DOT":0.00226542,"MEAN_MOTION_DDOT":0},{"OBJECT_NAME":"STARLINK-11469 [DTC]","OBJECT_ID":"2024-231K","EPOCH":"2025-08-30T13:32:16.623456","MEAN_MOTION":15.69751687,"ECCENTRICITY":0.00011077,"INCLINATION":53.1571,"RA_OF_ASC_NODE":323.399,"ARG_OF_PERICENTER":95.8254,"MEAN_ANOMALY":264.289,"EPHEMERIS_TYPE":0,"CLASSIFICATION_TYPE":"U","NORAD_CAT_ID":62227,"ELEMENT_SET_NO":999,"REV_AT_EPOCH":4339,"BSTAR":0.0011840037,"MEAN_MOTION_DOT":0.00145647,"MEAN_MOTION_DDOT":0},{"OBJECT_NAME":"STARLINK-11476 [DTC]","OBJECT_ID":"2024-231L","EPOCH":"2025-08-30T22:07:03.870912","MEAN_MOTION":15.69798205,"ECCENTRICITY":0.00016121,"INCLINATION":53.1568,"RA_OF_ASC_NODE":321.3549,"ARG_OF_PERICENTER":73.0587,"MEAN_ANOMALY":287.0607,"EPHEMERIS_TYPE":0,"CLASSIFICATION_TYPE":"U","NORAD_CAT_ID":62228,"ELEMENT_SET_NO":999,"REV_AT_EPOCH":4346,"BSTAR":0.0018854371,"MEAN_MOTION_DOT":0.00235283,"MEAN_MOTION_DDOT":0},{"OBJECT_NAME":"STARLINK-11485 [DTC]","OBJECT_ID":"2024-231M","EPOCH":"2025-08-30T11:53:31.757280","MEAN_MOTION":15.6972592,"ECCENTRICITY":9.486e-5,"INCLINATION":53.1573,"RA_OF_ASC_NODE":323.6806,"ARG_OF_PERICENTER":79.4872,"MEAN_ANOMALY":280.6253,"EPHEMERIS_TYPE":0,"CLASSIFICATION_TYPE":"U","NORAD_CAT_ID":62229,"ELEMENT_SET_NO":999,"REV_AT_EPOCH":4338,"BSTAR":0.0018782885,"MEAN_MOTION_DOT":0.00233642,"MEAN_MOTION_DDOT":0},{"OBJECT_NAME":"STARLINK-11481 [DTC]","OBJECT_ID":"2024-231N","EPOCH":"2025-08-30T20:28:27.360480","MEAN_MOTION":15.69827352,"ECCENTRICITY":0.00012549,"INCLINATION":53.1565,"RA_OF_ASC_NODE":322.3698,"ARG_OF_PERICENTER":107.8584,"MEAN_ANOMALY":252.2571,"EPHEMERIS_TYPE":0,"CLASSIFICATION_TYPE":"U","NORAD_CAT_ID":62230,"ELEMENT_SET_NO":999,"REV_AT_EPOCH":4343,"BSTAR":0.0026287086,"MEAN_MOTION_DOT":0.00332592,"MEAN_MOTION_DDOT":0},{"OBJECT_NAME":"STARLINK-32650","OBJECT_ID":"2024-231P","EPOCH":"2025-08-30T16:40:49.671840","MEAN_MOTION":15.30214276,"ECCENTRICITY":9.874e-5,"INCLINATION":53.1599,"RA_OF_ASC_NODE":26.9668,"ARG_OF_PERICENTER":88.8548,"MEAN_ANOMALY":271.2566,"EPHEMERIS_TYPE":0,"CLASSIFICATION_TYPE":"U","NORAD_CAT_ID":62231,"ELEMENT_SET_NO":999,"REV_AT_EPOCH":4252,"BSTAR":0.00078299072,"MEAN_MOTION_DOT":0.00022912,"MEAN_MOTION_DDOT":0},{"OBJECT_NAME":"STARLINK-32636","OBJECT_ID":"2024-231Q","EPOCH":"2025-08-30T17:17:08.439648","MEAN_MOTION":15.30219227,"ECCENTRICITY":0.00011432,"INCLINATION":53.1611,"RA_OF_ASC_NODE":26.4159,"ARG_OF_PERICENTER":82.6663,"MEAN_ANOMALY":277.4467,"EPHEMERIS_TYPE":0,"CLASSIFICATION_TYPE":"U","NORAD_CAT_ID":62232,"ELEMENT_SET_NO":999,"REV_AT_EPOCH":4253,"BSTAR":0.0012988995,"MEAN_MOTION_DOT":0.00038332,"MEAN_MOTION_DDOT":0},{"OBJECT_NAME":"STARLINK-32643","OBJECT_ID":"2024-231R","EPOCH":"2025-08-30T15:39:59.690880","MEAN_MOTION":15.39602503,"ECCENTRICITY":0.00012258,"INCLINATION":53.1601,"RA_OF_ASC_NODE":17.4732,"ARG_OF_PERICENTER":77.1521,"MEAN_ANOMALY":282.9621,"EPHEMERIS_TYPE":0,"CLASSIFICATION_TYPE":"U","NORAD_CAT_ID":62233,"ELEMENT_SET_NO":999,"REV_AT_EPOCH":4264,"BSTAR":0.0014482317,"MEAN_MOTION_DOT":0.00057936,"MEAN_MOTION_DDOT":0},{"OBJECT_NAME":"STARLINK-32652","OBJECT_ID":"2024-231S","EPOCH":"2025-08-30T16:16:30.917568","MEAN_MOTION":15.30192631,"ECCENTRICITY":6.926e-5,"INCLINATION":53.1607,"RA_OF_ASC_NODE":26.858,"ARG_OF_PERICENTER":82.5304,"MEAN_ANOMALY":277.5775,"EPHEMERIS_TYPE":0,"CLASSIFICATION_TYPE":"U","NORAD_CAT_ID":62234,"ELEMENT_SET_NO":999,"REV_AT_EPOCH":4251,"BSTAR":0.00091229569,"MEAN_MOTION_DOT":0.00026752,"MEAN_MOTION_DDOT":0},{"OBJECT_NAME":"STARLINK-32631","OBJECT_ID":"2024-231T","EPOCH":"2025-08-30T15:52:53.600736","MEAN_MOTION":15.39619567,"ECCENTRICITY":0.00014085,"INCLINATION":53.1603,"RA_OF_ASC_NODE":17.5315,"ARG_OF_PERICENTER":92.1675,"MEAN_ANOMALY":267.9492,"EPHEMERIS_TYPE":0,"CLASSIFICATION_TYPE":"U","NORAD_CAT_ID":62235,"ELEMENT_SET_NO":999,"REV_AT_EPOCH":4264,"BSTAR":0.0015512877,"MEAN_MOTION_DOT":0.00062157,"MEAN_MOTION_DDOT":0},{"OBJECT_NAME":"STARLINK-32641","OBJECT_ID":"2024-231U","EPOCH":"2025-08-30T18:13:02.654400","MEAN_MOTION":15.39617145,"ECCENTRICITY":0.00021898,"INCLINATION":53.1599,"RA_OF_ASC_NODE":16.7118,"ARG_OF_PERICENTER":34.582,"MEAN_ANOMALY":325.5327,"EPHEMERIS_TYPE":0,"CLASSIFICATION_TYPE":"U","NORAD_CAT_ID":62236,"ELEMENT_SET_NO":999,"REV_AT_EPOCH":4266,"BSTAR":0.0013916693,"MEAN_MOTION_DOT":0.0005567,"MEAN_MOTION_DDOT":0}]
