STARLINK-11468 [DTC]    
1 62221U 24231D   25242.52984884  .00328061  00000+0  26078-2 0  9992
2 62221  53.1570 323.9126 0002194  38.3724 321.7450 15.69702733 43388
STARLINK-11488 [DTC]    
1 62222U 24231E   25242.51513090  .00218651  00000+0  17603-2 0  9996
2 62222  53.1567 323.8152 0001722  37.5659 322.5479 15.69739378 43382
STARLINK-11483 [DTC]    
1 62223U 24231F   25242.92647259  .00169569  00000+0  13738-2 0  9995
2 62223  53.1571 321.3901 0000736 104.9931 255.1169 15.69750320 43454
STARLINK-11492 [DTC]    
1 62224U 24231G   25242.52494130  .00197592  00000+0  15925-2 0  9997
2 62224  53.1569 323.8897 0001091  76.4699 283.6440 15.69781794 43381
STARLINK-11471 [DTC]    
1 62225U 24231H   25242.93137972  .00190211  00000+0  15369-2 0  9994
2 62225  53.1568 321.4335 0001131  79.9092 280.2054 15.69744568 43452
STARLINK-11475 [DTC]    
1 62226U 24231J   25242.93628752  .00226542  00000+0  18173-2 0  9999
2 62226  53.1573 321.4517 0001007  50.1658 309.9448 15.69800671 43456
STARLINK-11469 [DTC]    
1 62227U 24231K   25242.56408129  .00145647  00000+0  11840-2 0  9993
2 62227  53.1571 323.3990 0001107  95.8254 264.2890 15.69751687 43399
STARLINK-11476 [DTC]    
1 62228U 24231L   25242.92157258  .00235283  00000+0  18854-2 0  9996
2 62228  53.1568 321.3549 0001612  73.0587 287.0607 15.69798205 43466
STARLINK-11485 [DTC]    
1 62229U 24231M   25242.49550645  .00233642  00000+0  18783-2 0  9994
2 62229  53.1573 323.6806 0000948  79.4872 280.6253 15.69725920 43383
STARLINK-11481 [DTC]    
1 62230U 24231N   25242.85309445  .00332592  00000+0  26287-2 0  9998
2 62230  53.1565 322.3698 0001254 107.8584 252.2571 15.69827352 43434
STARLINK-32650          
1 62231U 24231P   25242.69501935  .00022912  00000+0  78299-3 0  9992
2 62231  53.1599  26.9668 0000987  88.8548 271.2566 15.30214276 42523
STARLINK-32636          
1 62232U 24231Q   25242.72023657  .00038332  00000+0  12989-2 0  9993
2 62232  53.1611  26.4159 0001143  82.6663 277.4467 15.30219227 42534
STARLINK-32643          
1 62233U 24231R   25242.65277420  .00057936  00000+0  14482-2 0  9996
2 62233  53.1601  17.4732 0001225  77.1521 282.9621 15.39602503 42641
STARLINK-32652          
1 62234U 24231S   25242.67813562  .00026752  00000+0  91230-3 0  9991
2 62234  53.1607  26.8580 0000692  82.5304 277.5775 15.30192631 42512
STARLINK-32631          
1 62235U 24231T   25242.66173149  .00062157  00000+0  15513-2 0  9999
2 62235  53.1603  17.5315 0001408  92.1675 267.9492 15.39619567 42640
STARLINK-32641          
1 62236U 24231U   25242.75905850  .00055670  00000+0  13917-2 0  9990
2 62236  53.1599  16.7118 0002189  34.5820 325.5327 15.39617145 42666
